STARLINK-36712          
1 67700U 26025H   26061.78825111  .00425369  00000+0  26942-2 0  9996
2 67700  97.2851 173.0261 0001836  61.9458 298.1992 15.75351899  4855
STARLINK-36713          
1 67701U 26025J   26061.79001063  .00312609  00000+0  20161-2 0  9999
2 67701  97.2856 173.0226 0001663  34.6810 325.4563 15.75245749  4864
STARLINK-36695          
1 67702U 26025K   26061.79212259  .00262946  00000+0  17111-2 0  9990
2 67702  97.2860 173.0187 0001126 144.5661 215.5679 15.75176112  4858
STARLINK-36630          
1 67703U 26025L   26061.76544950  .00274798  00000+0  13879-2 0  9999
2 67703  97.2852 173.0569 0000881  48.6498 311.4846 15.80859640  4855
STARLINK-36338          
1 67704U 26025M   26061.83335647 -.00028132  00000+0 -18815-3 0  9996
2 67704  97.2851 173.1151 0001363  87.4541 268.2877 15.75215651  4809
STARLINK-36316          
1 67705U 26025N   26061.84400578  .00134624  00000+0  88799-3 0  9994
2 67705  97.2858 173.1018 0000901 122.6535 237.4817 15.75224001  4868
STARLINK-36707          
1 67706U 26025P   26061.83335647 -.00032829  00000+0 -22000-3 0  9997
2 67706  97.2848 173.1374 0001415  98.1554 313.6002 15.75197452  4594
STARLINK-36645          
1 67707U 26025Q   26061.78436924  .00272045  00000+0  17596-2 0  9999
2 67707  97.2858 173.0293 0002528  33.6896 326.4529 15.75289770  4854
STARLINK-36287          
1 67708U 26025R   26061.75595311  .00459153  00000+0  22640-2 0  9996
2 67708  97.2856 173.0676 0001685   6.3995 353.7295 15.80911821  4867
STARLINK-36698          
1 67709U 26025S   26061.74903585  .00641272  00000+0  30793-2 0  9995
2 67709  97.2860 173.0761 0002673  59.0223 301.1308 15.81027112  4858
STARLINK-36344          
1 67710U 26025T   26061.83335647 -.00016840  00000+0 -11222-3 0  9991
2 67710  97.2849 173.1481 0001684  75.2617   0.4900 15.75196126  4914
STARLINK-36687          
1 67711U 26025U   26061.75134403  .00610245  00000+0  29426-2 0  9991
2 67711  97.2858 173.0728 0002853  51.8254 308.3271 15.81015233  4865
STARLINK-36705          
1 67712U 26025V   26061.76459758  .00412638  00000+0  26242-2 0  9995
2 67712  97.2864 173.0526 0000290 349.4647  10.6612 15.75289619  4859
STARLINK-36708          
1 67713U 26025W   26061.80380288  .00191632  00000+0  97995-3 0  9994
2 67713  97.2871 173.1528 0001515 112.6509 247.4920 15.80802874  4862
STARLINK-36702          
1 67714U 26025X   26061.80578152  .00223113  00000+0  11337-2 0  9999
2 67714  97.2872 173.1501 0001576  93.7702 266.3747 15.80859796  4868
STARLINK-36718          
1 67715U 26025Y   26061.79962135  .00734805  00000+0  34768-2 0  9994
2 67715  97.2870 173.1589 0002702  26.2208 333.9197 15.81111215  4865
STARLINK-36715          
1 67716U 26025Z   26061.80167182  .00289201  00000+0  14608-2 0  9992
2 67716  97.2873 173.1561 0000920 134.9417 225.1926 15.80820132  4864
