[{"OBJECT_NAME":"STARLINK-36712","OBJECT_ID":"2026-025H","EPOCH":"2026-03-02T18:55:04.895904","MEAN_MOTION":15.75351899,"ECCENTRICITY":0.0001836,"INCLINATION":97.2851,"RA_OF_ASC_NODE":173.0261,"ARG_OF_PERICENTER":61.9458,"MEAN_ANOMALY":298.1992,"EPHEMERIS_TYPE":0,"CLASSIFICATION_TYPE":"U","NORAD_CAT_ID":67700,"ELEMENT_SET_NO":999,"REV_AT_EPOCH":485,"BSTAR":0.0026942,"MEAN_MOTION_DOT":0.00425369,"MEAN_MOTION_DDOT":0},{"OBJECT_NAME":"STARLINK-36713","OBJECT_ID":"2026-025J","EPOCH":"2026-03-02T18:57:36.918432","MEAN_MOTION":15.75245749,"ECCENTRICITY":0.0001663,"INCLINATION":97.2856,"RA_OF_ASC_NODE":173.0226,"ARG_OF_PERICENTER":34.681,"MEAN_ANOMALY":325.4563,"EPHEMERIS_TYPE":0,"CLASSIFICATION_TYPE":"U","NORAD_CAT_ID":67701,"ELEMENT_SET_NO":999,"REV_AT_EPOCH":486,"BSTAR":0.0020161,"MEAN_MOTION_DOT":0.00312609,"MEAN_MOTION_DDOT":0},{"OBJECT_NAME":"STARLINK-36695","OBJECT_ID":"2026-025K","EPOCH":"2026-03-02T19:00:39.391776","MEAN_MOTION":15.75176112,"ECCENTRICITY":0.0001126,"INCLINATION":97.286,"RA_OF_ASC_NODE":173.0187,"ARG_OF_PERICENTER":144.5661,"MEAN_ANOMALY":215.5679,"EPHEMERIS_TYPE":0,"CLASSIFICATION_TYPE":"U","NORAD_CAT_ID":67702,"ELEMENT_SET_NO":999,"REV_AT_EPOCH":485,"BSTAR":0.0017111,"MEAN_MOTION_DOT":0.00262946,"MEAN_MOTION_DDOT":0},{"OBJECT_NAME":"STARLINK-36630","OBJECT_ID":"2026-025L","EPOCH":"2026-03-02T18:22:14.836800","MEAN_MOTION":15.8085964,"ECCENTRICITY":8.81e-5,"INCLINATION":97.2852,"RA_OF_ASC_NODE":173.0569,"ARG_OF_PERICENTER":48.6498,"MEAN_ANOMALY":311.4846,"EPHEMERIS_TYPE":0,"CLASSIFICATION_TYPE":"U","NORAD_CAT_ID":67703,"ELEMENT_SET_NO":999,"REV_AT_EPOCH":485,"BSTAR":0.0013879,"MEAN_MOTION_DOT":0.00274798,"MEAN_MOTION_DDOT":0},{"OBJECT_NAME":"STARLINK-36338","OBJECT_ID":"2026-025M","EPOCH":"2026-03-02T20:00:01.999008","MEAN_MOTION":15.75215651,"ECCENTRICITY":0.0001363,"INCLINATION":97.2851,"RA_OF_ASC_NODE":173.1151,"ARG_OF_PERICENTER":87.4541,"MEAN_ANOMALY":268.2877,"EPHEMERIS_TYPE":0,"CLASSIFICATION_TYPE":"U","NORAD_CAT_ID":67704,"ELEMENT_SET_NO":999,"REV_AT_EPOCH":480,"BSTAR":-0.00018815,"MEAN_MOTION_DOT":-0.00028132,"MEAN_MOTION_DDOT":0},{"OBJECT_NAME":"STARLINK-36316","OBJECT_ID":"2026-025N","EPOCH":"2026-03-02T20:15:22.099392","MEAN_MOTION":15.75224001,"ECCENTRICITY":9.01e-5,"INCLINATION":97.2858,"RA_OF_ASC_NODE":173.1018,"ARG_OF_PERICENTER":122.6535,"MEAN_ANOMALY":237.4817,"EPHEMERIS_TYPE":0,"CLASSIFICATION_TYPE":"U","NORAD_CAT_ID":67705,"ELEMENT_SET_NO":999,"REV_AT_EPOCH":486,"BSTAR":0.00088799,"MEAN_MOTION_DOT":0.00134624,"MEAN_MOTION_DDOT":0},{"OBJECT_NAME":"STARLINK-36707","OBJECT_ID":"2026-025P","EPOCH":"2026-03-02T20:00:01.999008","MEAN_MOTION":15.75197452,"ECCENTRICITY":0.0001415,"INCLINATION":97.2848,"RA_OF_ASC_NODE":173.1374,"ARG_OF_PERICENTER":98.1554,"MEAN_ANOMALY":313.6002,"EPHEMERIS_TYPE":0,"CLASSIFICATION_TYPE":"U","NORAD_CAT_ID":67706,"ELEMENT_SET_NO":999,"REV_AT_EPOCH":459,"BSTAR":-0.00022,"MEAN_MOTION_DOT":-0.00032829,"MEAN_MOTION_DDOT":0},{"OBJECT_NAME":"STARLINK-36645","OBJECT_ID":"2026-025Q","EPOCH":"2026-03-02T18:49:29.502336","MEAN_MOTION":15.7528977,"ECCENTRICITY":0.0002528,"INCLINATION":97.2858,"RA_OF_ASC_NODE":173.0293,"ARG_OF_PERICENTER":33.6896,"MEAN_ANOMALY":326.4529,"EPHEMERIS_TYPE":0,"CLASSIFICATION_TYPE":"U","NORAD_CAT_ID":67707,"ELEMENT_SET_NO":999,"REV_AT_EPOCH":485,"BSTAR":0.0017596,"MEAN_MOTION_DOT":0.00272045,"MEAN_MOTION_DDOT":0},{"OBJECT_NAME":"STARLINK-36287","OBJECT_ID":"2026-025R","EPOCH":"2026-03-02T18:08:34.348704","MEAN_MOTION":15.80911821,"ECCENTRICITY":0.0001685,"INCLINATION":97.2856,"RA_OF_ASC_NODE":173.0676,"ARG_OF_PERICENTER":6.3995,"MEAN_ANOMALY":353.7295,"EPHEMERIS_TYPE":0,"CLASSIFICATION_TYPE":"U","NORAD_CAT_ID":67708,"ELEMENT_SET_NO":999,"REV_AT_EPOCH":486,"BSTAR":0.002264,"MEAN_MOTION_DOT":0.00459153,"MEAN_MOTION_DDOT":0},{"OBJECT_NAME":"STARLINK-36698","OBJECT_ID":"2026-025S","EPOCH":"2026-03-02T17:58:36.697440","MEAN_MOTION":15.81027112,"ECCENTRICITY":0.0002673,"INCLINATION":97.286,"RA_OF_ASC_NODE":173.0761,"ARG_OF_PERICENTER":59.0223,"MEAN_ANOMALY":301.1308,"EPHEMERIS_TYPE":0,"CLASSIFICATION_TYPE":"U","NORAD_CAT_ID":67709,"ELEMENT_SET_NO":999,"REV_AT_EPOCH":485,"BSTAR":0.0030793,"MEAN_MOTION_DOT":0.00641272,"MEAN_MOTION_DDOT":0},{"OBJECT_NAME":"STARLINK-36344","OBJECT_ID":"2026-025T","EPOCH":"2026-03-02T20:00:01.999008","MEAN_MOTION":15.75196126,"ECCENTRICITY":0.0001684,"INCLINATION":97.2849,"RA_OF_ASC_NODE":173.1481,"ARG_OF_PERICENTER":75.2617,"MEAN_ANOMALY":0.49,"EPHEMERIS_TYPE":0,"CLASSIFICATION_TYPE":"U","NORAD_CAT_ID":67710,"ELEMENT_SET_NO":999,"REV_AT_EPOCH":491,"BSTAR":-0.00011222,"MEAN_MOTION_DOT":-0.0001684,"MEAN_MOTION_DDOT":0},{"OBJECT_NAME":"STARLINK-36687","OBJECT_ID":"2026-025U","EPOCH":"2026-03-02T18:01:56.124192","MEAN_MOTION":15.81015233,"ECCENTRICITY":0.0002853,"INCLINATION":97.2858,"RA_OF_ASC_NODE":173.0728,"ARG_OF_PERICENTER":51.8254,"MEAN_ANOMALY":308.3271,"EPHEMERIS_TYPE":0,"CLASSIFICATION_TYPE":"U","NORAD_CAT_ID":67711,"ELEMENT_SET_NO":999,"REV_AT_EPOCH":486,"BSTAR":0.0029426,"MEAN_MOTION_DOT":0.00610245,"MEAN_MOTION_DDOT":0},{"OBJECT_NAME":"STARLINK-36705","OBJECT_ID":"2026-025V","EPOCH":"2026-03-02T18:21:01.230912","MEAN_MOTION":15.75289619,"ECCENTRICITY":2.9e-5,"INCLINATION":97.2864,"RA_OF_ASC_NODE":173.0526,"ARG_OF_PERICENTER":349.4647,"MEAN_ANOMALY":10.6612,"EPHEMERIS_TYPE":0,"CLASSIFICATION_TYPE":"U","NORAD_CAT_ID":67712,"ELEMENT_SET_NO":999,"REV_AT_EPOCH":485,"BSTAR":0.0026242,"MEAN_MOTION_DOT":0.00412638,"MEAN_MOTION_DDOT":0},{"OBJECT_NAME":"STARLINK-36708","OBJECT_ID":"2026-025W","EPOCH":"2026-03-02T19:17:28.568832","MEAN_MOTION":15.80802874,"ECCENTRICITY":0.0001515,"INCLINATION":97.2871,"RA_OF_ASC_NODE":173.1528,"ARG_OF_PERICENTER":112.6509,"MEAN_ANOMALY":247.492,"EPHEMERIS_TYPE":0,"CLASSIFICATION_TYPE":"U","NORAD_CAT_ID":67713,"ELEMENT_SET_NO":999,"REV_AT_EPOCH":486,"BSTAR":0.00097995,"MEAN_MOTION_DOT":0.00191632,"MEAN_MOTION_DDOT":0},{"OBJECT_NAME":"STARLINK-36702","OBJECT_ID":"2026-025X","EPOCH":"2026-03-02T19:20:19.523328","MEAN_MOTION":15.80859796,"ECCENTRICITY":0.0001576,"INCLINATION":97.2872,"RA_OF_ASC_NODE":173.1501,"ARG_OF_PERICENTER":93.7702,"MEAN_ANOMALY":266.3747,"EPHEMERIS_TYPE":0,"CLASSIFICATION_TYPE":"U","NORAD_CAT_ID":67714,"ELEMENT_SET_NO":999,"REV_AT_EPOCH":486,"BSTAR":0.0011337,"MEAN_MOTION_DOT":0.00223113,"MEAN_MOTION_DDOT":0},{"OBJECT_NAME":"STARLINK-36718","OBJECT_ID":"2026-025Y","EPOCH":"2026-03-02T19:11:27.284640","MEAN_MOTION":15.81111215,"ECCENTRICITY":0.0002702,"INCLINATION":97.287,"RA_OF_ASC_NODE":173.1589,"ARG_OF_PERICENTER":26.2208,"MEAN_ANOMALY":333.9197,"EPHEMERIS_TYPE":0,"CLASSIFICATION_TYPE":"U","NORAD_CAT_ID":67715,"ELEMENT_SET_NO":999,"REV_AT_EPOCH":486,"BSTAR":0.0034768,"MEAN_MOTION_DOT":0.00734805,"MEAN_MOTION_DDOT":0},{"OBJECT_NAME":"STARLINK-36715","OBJECT_ID":"2026-025Z","EPOCH":"2026-03-02T19:14:24.445248","MEAN_MOTION":15.80820132,"ECCENTRICITY":9.2e-5,"INCLINATION":97.2873,"RA_OF_ASC_NODE":173.1561,"ARG_OF_PERICENTER":134.9417,"MEAN_ANOMALY":225.1926,"EPHEMERIS_TYPE":0,"CLASSIFICATION_TYPE":"U","NORAD_CAT_ID":67716,"ELEMENT_SET_NO":999,"REV_AT_EPOCH":486,"BSTAR":0.0014608,"MEAN_MOTION_DOT":0.00289201,"MEAN_MOTION_DDOT":0}]
